      2.10          N: GNSS NAV DATA                        RINEX VERSION / TYPE
fic2rin                                 02/14/2020 00:20:12 PGM / RUN BY / DATE
                                                            END OF HEADER
26 20  2 13  2  0  0.0 1.472025178373e-04 7.730704965070e-12 0.000000000000e+00
    3.000000000000e+00-4.428125000000e+01 5.225931966757e-09-1.220809920891e+00
   -2.445653080940e-06 4.652740200981e-03 5.176290869713e-06 5.153740652084e+03
    3.528000000000e+05 1.303851604462e-08 2.819737928283e+00-3.911554813385e-08
    9.481963013019e-01 2.685625000000e+02 1.964784883005e-01-8.602501185847e-09
   -2.746542975968e-10 1.000000000000e+00 2.092000000000e+03 0.000000000000e+00
    2.400000000000e+00 0.000000000000e+00 7.450580596924e-09 3.000000000000e+00
    3.456000000000e+05 4.000000000000e+00
30 20  2 13  2  0  0.0-1.518353819847e-04-8.981260180008e-12 0.000000000000e+00
    7.000000000000e+00 6.375000000000e+01 5.285577308368e-09 3.835780639660e-01
    3.390014171600e-06 4.232839099132e-03 6.606802344322e-06 5.153686073303e+03
    3.528000000000e+05 3.725290298462e-08 1.840272368925e+00 2.793967723846e-08
    9.387120717314e-01 2.396250000000e+02-2.933930102445e+00-8.604644132252e-09
    4.064455015151e-10 1.000000000000e+00 2.092000000000e+03 0.000000000000e+00
    2.400000000000e+00 0.000000000000e+00 3.725290298462e-09 7.000000000000e+00
    3.456000000000e+05 4.000000000000e+00
15 20  2 13  2  0  0.0-2.519614063203e-04 2.614797267597e-12 0.000000000000e+00
    2.200000000000e+01-3.456250000000e+01 4.920562104019e-09 2.410617459482e+00
   -1.896172761917e-06 1.215886441059e-02 1.191906630993e-05 5.153643573761e+03
    3.528000000000e+05-2.421438694000e-08 6.543624010491e-01-1.918524503708e-07
    9.284161420646e-01 1.330000000000e+02 8.632794819813e-01-8.123552664290e-09
   -5.357366012941e-11 1.000000000000e+00 2.092000000000e+03 0.000000000000e+00
    2.400000000000e+00 0.000000000000e+00-1.117587089539e-08 2.200000000000e+01
    3.456000000000e+05 4.000000000000e+00
32 20  2 13  2  0  0.0 2.108467742801e-04 9.890754881781e-12 0.000000000000e+00
    1.000000000000e+01-1.875000000000e+01 4.198032007741e-09-2.234697885600e+00
   -9.667128324509e-07 3.548603970557e-03 1.330114901066e-05 5.153688392639e+03
    3.528000000000e+05-2.793967723846e-08 7.490447266623e-01-4.470348358154e-08
    9.569920040897e-01 1.209687500000e+02-2.526696284482e+00-7.793181760159e-09
    1.964367538078e-11 1.000000000000e+00 2.092000000000e+03 0.000000000000e+00
    2.400000000000e+00 0.000000000000e+00 4.656612873077e-10 1.000000000000e+01
    3.456000000000e+05 4.000000000000e+00
29 20  2 13  2  0  0.0-3.164354711771e-05-9.436007530894e-12 0.000000000000e+00
    2.600000000000e+01 2.153125000000e+01 3.922663394676e-09-2.680250026532e+00
    1.110136508942e-06 1.093444530852e-03 1.204200088978e-05 5.153630107880e+03
    3.528000000000e+05 1.117587089539e-08-2.317530323149e+00 3.911554813385e-08
    9.858679676666e-01 1.633125000000e+02 1.907971533370e+00-7.683891493495e-09
    1.714357124141e-11 1.000000000000e+00 2.092000000000e+03 0.000000000000e+00
    2.400000000000e+00 0.000000000000e+00-1.024454832077e-08 2.600000000000e+01
    3.456000000000e+05 4.000000000000e+00
31 20  2 13  2  0  0.0-2.283975481987e-05-2.501110429876e-12 0.000000000000e+00
    2.300000000000e+01 7.350000000000e+01 4.894846747157e-09-9.402360286046e-03
    4.006549715996e-06 9.664495242760e-03 6.379559636116e-06 5.153775869370e+03
    3.528000000000e+05 1.750886440277e-07 1.831152888719e+00-1.862645149231e-09
    9.578203916925e-01 2.525312500000e+02 1.177110714586e-01-8.544641632907e-09
    4.971635660009e-10 1.000000000000e+00 2.092000000000e+03 0.000000000000e+00
    2.400000000000e+00 0.000000000000e+00-1.350417733192e-08 2.300000000000e+01
    3.456000000000e+05 4.000000000000e+00
27 20  2 13  2  0  0.0-2.094595693052e-04-1.102762325900e-11 0.000000000000e+00
    1.800000000000e+01 3.406250000000e+00 3.907305612105e-09-2.992314440307e+00
    8.195638656616e-08 7.850872469135e-03 1.339241862297e-05 5.153666753769e+03
    3.528000000000e+05-7.078051567078e-08-2.386835206958e+00-1.359730958939e-07
    9.785325804269e-01 1.300625000000e+02 5.041290046651e-01-7.648890035543e-09
   -9.500395729616e-11 1.000000000000e+00 2.092000000000e+03 0.000000000000e+00
    2.400000000000e+00 0.000000000000e+00 1.396983861923e-09 1.800000000000e+01
    3.456000000000e+05 4.000000000000e+00
23 20  2 13  2  0  0.0-1.367181539536e-04 2.614797267597e-12 0.000000000000e+00
    2.200000000000e+01-3.787500000000e+01 4.628407077447e-09 1.816377490728e+00
   -2.035871148109e-06 1.344160991721e-02 1.348927617073e-05 5.153678363800e+03
    3.528000000000e+05-2.644956111908e-07 7.335191164840e-01-2.030283212662e-07
    9.436562784089e-01 1.135937500000e+02-2.197735269295e+00-8.146053601544e-09
   -1.025042697143e-10 1.000000000000e+00 2.092000000000e+03 0.000000000000e+00
    2.400000000000e+00 0.000000000000e+00-2.002343535423e-08 2.200000000000e+01
    3.456000000000e+05 4.000000000000e+00
16 20  2 13  2  0  0.0-1.238766126335e-04-4.092726157978e-12 0.000000000000e+00
    7.700000000000e+01-5.200000000000e+01 4.428398746297e-09-2.084250957304e+00
   -3.008171916008e-06 1.141215488315e-02 6.536021828651e-06 5.153709428787e+03
    3.528000000000e+05 1.341104507446e-07 2.939530836035e+00-8.754432201385e-08
    9.800606934503e-01 2.600312500000e+02 5.992521543090e-01-8.083193840326e-09
   -2.696540893180e-10 1.000000000000e+00 2.092000000000e+03 0.000000000000e+00
    2.400000000000e+00 0.000000000000e+00-1.071020960808e-08 7.700000000000e+01
    3.456000000000e+05 4.000000000000e+00
10 20  2 13  2  0  0.0-2.431874163449e-04-1.307398633799e-11 0.000000000000e+00
    7.300000000000e+01-7.443750000000e+01 4.684480841716e-09-9.493755478623e-01
   -3.965571522713e-06 5.387432524003e-03 5.735084414482e-06 5.153660350800e+03
    3.528000000000e+05 1.210719347000e-07-2.928802634557e-01-2.980232238770e-08
    9.651325477931e-01 2.718437500000e+02-2.675241991276e+00-8.316417840756e-09
   -4.203746531488e-10 1.000000000000e+00 2.092000000000e+03 0.000000000000e+00
    2.400000000000e+00 0.000000000000e+00 1.862645149231e-09 7.300000000000e+01
    3.456000000000e+05 4.000000000000e+00
13 20  2 13  2  0  0.0-1.324014738202e-05 2.728484105319e-12 0.000000000000e+00
    4.400000000000e+01 1.562500000000e-01 4.031953661340e-09 2.441465860876e+00
    3.725290298462e-08 4.182933480479e-03 1.242384314537e-05 5.153668439865e+03
    3.528000000000e+05 7.078051567078e-08 8.823739715148e-01-2.793967723846e-08
    9.679554793681e-01 1.444062500000e+02 1.156628635551e+00-7.751751462992e-09
    1.492919328940e-10 1.000000000000e+00 2.092000000000e+03 0.000000000000e+00
    2.400000000000e+00 0.000000000000e+00-1.117587089539e-08 4.400000000000e+01
    3.456000000000e+05 4.000000000000e+00
21 20  2 13  2  0  0.0-4.188949242234e-05 5.343281372916e-12 0.000000000000e+00
    2.700000000000e+01 6.334375000000e+01 5.145928634297e-09-7.364660479213e-01
    3.419816493988e-06 2.487939991988e-02 6.776303052902e-06 5.153558876038e+03
    3.528000000000e+05-3.352761268616e-07-1.402518222114e+00 8.568167686462e-08
    9.515330257985e-01 2.507812500000e+02-1.364817323720e+00-8.948587030283e-09
    5.143071372424e-10 1.000000000000e+00 2.092000000000e+03 0.000000000000e+00
    2.400000000000e+00 0.000000000000e+00-1.024454832077e-08 2.700000000000e+01
    3.456000000000e+05 4.000000000000e+00
12 20  2 13  2  0  0.0 1.518796198070e-04-4.206412995700e-12 0.000000000000e+00
    3.900000000000e+01-3.809375000000e+01 4.478757986819e-09-2.466068772406e-01
   -2.009794116020e-06 7.956820889376e-03 6.465241312981e-06 5.153745899200e+03
    3.528000000000e+05-4.842877388000e-08 2.920664074571e+00 4.470348358154e-08
    9.797826336852e-01 2.705312500000e+02 1.105731692358e+00-8.268201546639e-09
   -3.496574217780e-10 1.000000000000e+00 2.092000000000e+03 0.000000000000e+00
    2.400000000000e+00 0.000000000000e+00-1.257285475731e-08 3.900000000000e+01
    3.456000000000e+05 4.000000000000e+00
28 20  2 13  2  0  0.0 7.395697757602e-04-2.273736754432e-12 0.000000000000e+00
    6.200000000000e+01-3.921875000000e+01 4.315536902291e-09-2.285151112573e+00
   -1.790001988411e-06 1.867908216082e-02 5.980953574181e-06 5.153664499283e+03
    3.528000000000e+05 2.421438694000e-07 2.943328090069e+00 2.179294824600e-07
    9.790642048569e-01 2.680000000000e+02-1.415978380680e+00-7.820325747957e-09
   -2.903692379014e-10 1.000000000000e+00 2.092000000000e+03 0.000000000000e+00
    2.400000000000e+00 0.000000000000e+00-1.117587089539e-08 6.200000000000e+01
    3.456000000000e+05 4.000000000000e+00
18 20  2 13  2  0  0.0 2.290122210979e-06 1.932676241267e-12 0.000000000000e+00
    2.700000000000e+01 6.096875000000e+01 4.964135347591e-09 8.070703496967e-01
    3.155320882797e-06 1.566318457481e-02 7.024034857750e-06 5.153639776230e+03
    3.528000000000e+05-1.955777406693e-07-1.391946172511e+00-1.490116119385e-08
    9.571532103474e-01 2.454062500000e+02 1.454511575594e+00-8.711077137042e-09
    3.460858444360e-10 1.000000000000e+00 2.092000000000e+03 0.000000000000e+00
    2.400000000000e+00 6.300000000000e+01-5.587935447693e-09 2.700000000000e+01
    3.456000000000e+05 4.000000000000e+00
 4 20  2 13  2  0  0.0-4.805298522115e-05-5.343281372916e-12 0.000000000000e+00
    7.600000000000e+01-1.906250000000e+01 4.276606709264e-09 2.374517741018e+00
   -9.685754776001e-07 5.262220511213e-04 1.345202326775e-05 5.153728496552e+03
    3.528000000000e+05 1.490116119385e-08 7.882112802551e-01-3.352761268616e-08
    9.601093055035e-01 1.190937500000e+02-2.719902748764e+00-7.919615598064e-09
   -2.642967233051e-11 1.000000000000e+00 2.092000000000e+03 0.000000000000e+00
    2.400000000000e+00 0.000000000000e+00-4.190951585770e-09 5.880000000000e+02
    3.456600000000e+05 4.000000000000e+00
